HULIANWANG DIGUI 18A    
1 67435U 26007A   26020.36386598  .00000156  00000+0  23573-3 0  9992
2 67435  50.0081 267.6356 0008367 292.6390  67.3624 13.92122551   943
HULIANWANG DIGUI 18B    
1 67436U 26007B   26020.22081105  .00000090  00000+0  18465-3 0  9995
2 67436  50.0062 268.2087 0007479 280.1075  79.8981 13.92014850   920
HULIANWANG DIGUI 18C    
1 67437U 26007C   26020.22060729  .00000140  00000+0  22283-3 0  9994
2 67437  50.0031 268.2041 0008138 287.3691  72.6318 13.92055236   921
HULIANWANG DIGUI 18D    
1 67438U 26007D   26020.22133975  .00000125  00000+0  21165-3 0  9990
2 67438  50.0056 268.2111 0008945 286.0685  73.9229 13.91902637   922
HULIANWANG DIGUI 18E    
1 67439U 26007E   26020.22006747  .00000102  00000+0  19362-3 0  9998
2 67439  50.0048 268.2032 0006733 284.9769  75.0385 13.92171116   926
HULIANWANG DIGUI 18F    
1 67440U 26007F   26020.21945888 -.00000101  00000+0  35226-4 0  9995
2 67440  50.0126 268.2110 0007600 293.9611  66.0492 13.92299712   924
HULIANWANG DIGUI 18G    
1 67441U 26007G   26020.21932288  .00000096  00000+0  18790-3 0  9994
2 67441  50.0105 268.2072 0006310 290.4468  69.5754 13.92329376   927
HULIANWANG DIGUI 18H    
1 67442U 26007H   26020.21904893  .00000075  00000+0  17196-3 0  9992
2 67442  50.0093 268.2048 0007469 300.8077  59.2087 13.92386031   921
HULIANWANG DIGUI 18J    
1 67443U 26007J   26020.21828965  .00000115  00000+0  20248-3 0  9995
2 67443  50.0096 268.2008 0006047 299.2661  60.7634 13.92554474   925
CZ-8A R/B               
1 67444U 26007K   26020.05097539 -.00000160  00000+0 -20467-5 0  9990
2 67444  50.0095 267.9794 0092160 105.0658 256.0471 14.13544720   908
ALSAT-3A                
1 67474U 26009A   26020.20351153  .00015584  00000+0  65520-3 0  9998
2 67474  97.4717  94.9572 0011457 249.3940 110.6068 15.23441040   770
CZ-2C R/B               
1 67475U 26009B   26020.33848442  .00010637  00000+0  71536-3 0  9993
2 67475  97.1812  94.4247 0099004 204.9155 154.7275 15.02918251   787
