CCSDS_OMM_VERS = 2.0
CREATION_DATE  = 
ORIGINATOR     = 

OBJECT_NAME    = HULIANWANG DIGUI 18A
OBJECT_ID      = 2026-007A
CENTER_NAME    = EARTH
REF_FRAME      = TEME
TIME_SYSTEM    = UTC
MEAN_ELEMENT_THEORY = SGP/SGP4

EPOCH          = 2026-01-20T08:43:58.020672
MEAN_MOTION    = 13.92122551
ECCENTRICITY   = .0008367
INCLINATION    = 50.0081
RA_OF_ASC_NODE = 267.6356
ARG_OF_PERICENTER = 292.6390
MEAN_ANOMALY   = 67.3624

EPHEMERIS_TYPE = 0
CLASSIFICATION_TYPE = U
NORAD_CAT_ID   = 67435
ELEMENT_SET_NO = 999
REV_AT_EPOCH   = 94
BSTAR          = .23573E-3
MEAN_MOTION_DOT = .156E-5
MEAN_MOTION_DDOT = 0

CCSDS_OMM_VERS = 2.0
CREATION_DATE  = 
ORIGINATOR     = 

OBJECT_NAME    = HULIANWANG DIGUI 18B
OBJECT_ID      = 2026-007B
CENTER_NAME    = EARTH
REF_FRAME      = TEME
TIME_SYSTEM    = UTC
MEAN_ELEMENT_THEORY = SGP/SGP4

EPOCH          = 2026-01-20T05:17:58.074720
MEAN_MOTION    = 13.92014850
ECCENTRICITY   = .00074792
INCLINATION    = 50.0062
RA_OF_ASC_NODE = 268.2087
ARG_OF_PERICENTER = 280.1075
MEAN_ANOMALY   = 79.8981

EPHEMERIS_TYPE = 0
CLASSIFICATION_TYPE = U
NORAD_CAT_ID   = 67436
ELEMENT_SET_NO = 999
REV_AT_EPOCH   = 92
BSTAR          = .18464901E-3
MEAN_MOTION_DOT = .9E-6
MEAN_MOTION_DDOT = 0

CCSDS_OMM_VERS = 2.0
CREATION_DATE  = 
ORIGINATOR     = 

OBJECT_NAME    = HULIANWANG DIGUI 18C
OBJECT_ID      = 2026-007C
CENTER_NAME    = EARTH
REF_FRAME      = TEME
TIME_SYSTEM    = UTC
MEAN_ELEMENT_THEORY = SGP/SGP4

EPOCH          = 2026-01-20T05:17:40.469856
MEAN_MOTION    = 13.92055236
ECCENTRICITY   = .0008138
INCLINATION    = 50.0031
RA_OF_ASC_NODE = 268.2041
ARG_OF_PERICENTER = 287.3691
MEAN_ANOMALY   = 72.6318

EPHEMERIS_TYPE = 0
CLASSIFICATION_TYPE = U
NORAD_CAT_ID   = 67437
ELEMENT_SET_NO = 999
REV_AT_EPOCH   = 92
BSTAR          = .22282823E-3
MEAN_MOTION_DOT = .14E-5
MEAN_MOTION_DDOT = 0

CCSDS_OMM_VERS = 2.0
CREATION_DATE  = 
ORIGINATOR     = 

OBJECT_NAME    = HULIANWANG DIGUI 18D
OBJECT_ID      = 2026-007D
CENTER_NAME    = EARTH
REF_FRAME      = TEME
TIME_SYSTEM    = UTC
MEAN_ELEMENT_THEORY = SGP/SGP4

EPOCH          = 2026-01-20T05:18:43.754400
MEAN_MOTION    = 13.91902637
ECCENTRICITY   = .00089458
INCLINATION    = 50.0056
RA_OF_ASC_NODE = 268.2111
ARG_OF_PERICENTER = 286.0685
MEAN_ANOMALY   = 73.9229

EPHEMERIS_TYPE = 0
CLASSIFICATION_TYPE = U
NORAD_CAT_ID   = 67438
ELEMENT_SET_NO = 999
REV_AT_EPOCH   = 92
BSTAR          = .2116508E-3
MEAN_MOTION_DOT = .125E-5
MEAN_MOTION_DDOT = 0

CCSDS_OMM_VERS = 2.0
CREATION_DATE  = 
ORIGINATOR     = 

OBJECT_NAME    = HULIANWANG DIGUI 18E
OBJECT_ID      = 2026-007E
CENTER_NAME    = EARTH
REF_FRAME      = TEME
TIME_SYSTEM    = UTC
MEAN_ELEMENT_THEORY = SGP/SGP4

EPOCH          = 2026-01-20T05:16:53.829408
MEAN_MOTION    = 13.92171116
ECCENTRICITY   = .00067339
INCLINATION    = 50.0048
RA_OF_ASC_NODE = 268.2032
ARG_OF_PERICENTER = 284.9769
MEAN_ANOMALY   = 75.0385

EPHEMERIS_TYPE = 0
CLASSIFICATION_TYPE = U
NORAD_CAT_ID   = 67439
ELEMENT_SET_NO = 999
REV_AT_EPOCH   = 92
BSTAR          = .19362089E-3
MEAN_MOTION_DOT = .102E-5
MEAN_MOTION_DDOT = 0

CCSDS_OMM_VERS = 2.0
CREATION_DATE  = 
ORIGINATOR     = 

OBJECT_NAME    = HULIANWANG DIGUI 18F
OBJECT_ID      = 2026-007F
CENTER_NAME    = EARTH
REF_FRAME      = TEME
TIME_SYSTEM    = UTC
MEAN_ELEMENT_THEORY = SGP/SGP4

EPOCH          = 2026-01-20T05:16:01.247232
MEAN_MOTION    = 13.92299712
ECCENTRICITY   = .00076003
INCLINATION    = 50.0126
RA_OF_ASC_NODE = 268.2110
ARG_OF_PERICENTER = 293.9611
MEAN_ANOMALY   = 66.0492

EPHEMERIS_TYPE = 0
CLASSIFICATION_TYPE = U
NORAD_CAT_ID   = 67440
ELEMENT_SET_NO = 999
REV_AT_EPOCH   = 92
BSTAR          = .35226287E-4
MEAN_MOTION_DOT = -.101E-5
MEAN_MOTION_DDOT = 0

CCSDS_OMM_VERS = 2.0
CREATION_DATE  = 
ORIGINATOR     = 

OBJECT_NAME    = HULIANWANG DIGUI 18G
OBJECT_ID      = 2026-007G
CENTER_NAME    = EARTH
REF_FRAME      = TEME
TIME_SYSTEM    = UTC
MEAN_ELEMENT_THEORY = SGP/SGP4

EPOCH          = 2026-01-20T05:15:49.496832
MEAN_MOTION    = 13.92329376
ECCENTRICITY   = .00063108
INCLINATION    = 50.0105
RA_OF_ASC_NODE = 268.2072
ARG_OF_PERICENTER = 290.4468
MEAN_ANOMALY   = 69.5754

EPHEMERIS_TYPE = 0
CLASSIFICATION_TYPE = U
NORAD_CAT_ID   = 67441
ELEMENT_SET_NO = 999
REV_AT_EPOCH   = 92
BSTAR          = .18790159E-3
MEAN_MOTION_DOT = .96E-6
MEAN_MOTION_DDOT = 0

CCSDS_OMM_VERS = 2.0
CREATION_DATE  = 
ORIGINATOR     = 

OBJECT_NAME    = HULIANWANG DIGUI 18H
OBJECT_ID      = 2026-007H
CENTER_NAME    = EARTH
REF_FRAME      = TEME
TIME_SYSTEM    = UTC
MEAN_ELEMENT_THEORY = SGP/SGP4

EPOCH          = 2026-01-20T05:15:25.827552
MEAN_MOTION    = 13.92386031
ECCENTRICITY   = .00074695
INCLINATION    = 50.0093
RA_OF_ASC_NODE = 268.2048
ARG_OF_PERICENTER = 300.8077
MEAN_ANOMALY   = 59.2087

EPHEMERIS_TYPE = 0
CLASSIFICATION_TYPE = U
NORAD_CAT_ID   = 67442
ELEMENT_SET_NO = 999
REV_AT_EPOCH   = 92
BSTAR          = .17196297E-3
MEAN_MOTION_DOT = .75E-6
MEAN_MOTION_DDOT = 0

CCSDS_OMM_VERS = 2.0
CREATION_DATE  = 
ORIGINATOR     = 

OBJECT_NAME    = HULIANWANG DIGUI 18J
OBJECT_ID      = 2026-007J
CENTER_NAME    = EARTH
REF_FRAME      = TEME
TIME_SYSTEM    = UTC
MEAN_ELEMENT_THEORY = SGP/SGP4

EPOCH          = 2026-01-20T05:14:20.225760
MEAN_MOTION    = 13.92554474
ECCENTRICITY   = .00060476
INCLINATION    = 50.0096
RA_OF_ASC_NODE = 268.2008
ARG_OF_PERICENTER = 299.2661
MEAN_ANOMALY   = 60.7634

EPHEMERIS_TYPE = 0
CLASSIFICATION_TYPE = U
NORAD_CAT_ID   = 67443
ELEMENT_SET_NO = 999
REV_AT_EPOCH   = 92
BSTAR          = .20248206E-3
MEAN_MOTION_DOT = .115E-5
MEAN_MOTION_DDOT = 0

CCSDS_OMM_VERS = 2.0
CREATION_DATE  = 
ORIGINATOR     = 

OBJECT_NAME    = CZ-8A R/B
OBJECT_ID      = 2026-007K
CENTER_NAME    = EARTH
REF_FRAME      = TEME
TIME_SYSTEM    = UTC
MEAN_ELEMENT_THEORY = SGP/SGP4

EPOCH          = 2026-01-20T01:13:24.273696
MEAN_MOTION    = 14.13544720
ECCENTRICITY   = .00921606
INCLINATION    = 50.0095
RA_OF_ASC_NODE = 267.9794
ARG_OF_PERICENTER = 105.0658
MEAN_ANOMALY   = 256.0471

EPHEMERIS_TYPE = 0
CLASSIFICATION_TYPE = U
NORAD_CAT_ID   = 67444
ELEMENT_SET_NO = 999
REV_AT_EPOCH   = 90
BSTAR          = -.204671E-5
MEAN_MOTION_DOT = -.16E-5
MEAN_MOTION_DDOT = 0

CCSDS_OMM_VERS = 2.0
CREATION_DATE  = 
ORIGINATOR     = 

OBJECT_NAME    = ALSAT-3A
OBJECT_ID      = 2026-009A
CENTER_NAME    = EARTH
REF_FRAME      = TEME
TIME_SYSTEM    = UTC
MEAN_ELEMENT_THEORY = SGP/SGP4

EPOCH          = 2026-01-20T04:53:03.396192
MEAN_MOTION    = 15.23441040
ECCENTRICITY   = .00114576
INCLINATION    = 97.4717
RA_OF_ASC_NODE = 94.9572
ARG_OF_PERICENTER = 249.3940
MEAN_ANOMALY   = 110.6068

EPHEMERIS_TYPE = 0
CLASSIFICATION_TYPE = U
NORAD_CAT_ID   = 67474
ELEMENT_SET_NO = 999
REV_AT_EPOCH   = 77
BSTAR          = .65519866E-3
MEAN_MOTION_DOT = .15584E-3
MEAN_MOTION_DDOT = 0

CCSDS_OMM_VERS = 2.0
CREATION_DATE  = 
ORIGINATOR     = 

OBJECT_NAME    = CZ-2C R/B
OBJECT_ID      = 2026-009B
CENTER_NAME    = EARTH
REF_FRAME      = TEME
TIME_SYSTEM    = UTC
MEAN_ELEMENT_THEORY = SGP/SGP4

EPOCH          = 2026-01-20T08:07:25.053888
MEAN_MOTION    = 15.02918251
ECCENTRICITY   = .00990043
INCLINATION    = 97.1812
RA_OF_ASC_NODE = 94.4247
ARG_OF_PERICENTER = 204.9155
MEAN_ANOMALY   = 154.7275

EPHEMERIS_TYPE = 0
CLASSIFICATION_TYPE = U
NORAD_CAT_ID   = 67475
ELEMENT_SET_NO = 999
REV_AT_EPOCH   = 78
BSTAR          = .71536264E-3
MEAN_MOTION_DOT = .10637E-3
MEAN_MOTION_DDOT = 0

